#aV2023 11 10  0  0  0.00000000     288 DD+AD WGS84 FIT  NGA
## 2287 432000.00000000   300.00000000 60258 0.0000000000000
+   32     1  2  3  4  5  6  7  8  9 10 11 12 13 14 15 16 17
+         18 19 20 21 22 23 24 25 26 27 28 29 30 31 32  0  0
+          0  0  0  0  0  0  0  0  0  0  0  0  0  0  0  0  0
+          0  0  0  0  0  0  0  0  0  0  0  0  0  0  0  0  0
+          0  0  0  0  0  0  0  0  0  0  0  0  0  0  0  0  0
++         2  2  2  2  2  2  2  2  2  2  2  2  2  2  2  2  2
++         2  2  2  2  2  2  2  2  2  2  2  2  2  2  2  0  0
++         0  0  0  0  0  0  0  0  0  0  0  0  0  0  0  0  0
++         0  0  0  0  0  0  0  0  0  0  0  0  0  0  0  0  0
++         0  0  0  0  0  0  0  0  0  0  0  0  0  0  0  0  0
%c cc cc ccc ccc cccc cccc cccc cccc ccccc ccccc ccccc ccccc
%c cc cc ccc ccc cccc cccc cccc cccc ccccc ccccc ccccc ccccc
%f  0.0000000  0.000000000  0.00000000000  0.000000000000000
%f  0.0000000  0.000000000  0.00000000000  0.000000000000000
%i    0    0    0    0      0      0      0      0         0
%i    0    0    0    0      0      0      0      0         0
/*      NGA, ST. LOUIS,MO.                                  
/*   EPHEMERIS COMPUTED FROM 2 DAYS OF DATA                 
/*   EPOCHA v8 SMOOTHER                                     
/*   G2139 IERS2010 SATIGS SATAPC                           
*  2023 11 10 10 10  0.00000000
P  1   1730.943493  14666.601657 -22403.624815    163.198152                    
V  1 -26913.195655   5888.398151   2133.124583     -0.000244                    
P  2  -4948.355707  16167.752739 -19928.658406   -530.858160                    
V  2 -25451.750068   7366.367171  12185.772572      0.049850                    
P  3   9480.620060  21690.976341 -12296.455639    -23.748943                    
V  3 -11829.325635  -9863.567799 -26733.974052      0.249052                    
P  4    710.404484  23844.399927  11547.543249    208.905418                    
V  4  -6836.624670  13232.209771 -27043.559746      0.105001                    
P  5   2709.928508 -16636.688522  20324.362096   -149.832192                    
V  5  19767.507812  17242.430843  11467.257317     -0.014439                    
P  6  25919.362246  -6039.503066   -155.574399    509.682289                    
V  6    144.533365   1828.688256 -32317.642572     -0.097724                    
P  7  19260.234470   7909.965239  17232.782317     17.249956                    
V  7 -19839.376512   6488.320804  19274.084411     -0.099903                    
P  8  -4668.640114  25797.265564  -2590.574000   -151.397337                    
V  8  -3998.855575   2322.789209  31686.611540     -0.018456                    
P  9   9181.832471  16545.251296  18528.393248     -7.206251                    
V  9  -7530.742761  22571.487583 -16400.006686      0.111835                    
P 10 -20805.741924  -7126.391602 -14939.081285    -60.812078                    
V 10 -12276.885218 -14744.155092  23509.808195     -0.014907                    
P 11  20795.071881 -12049.508590  11267.707394   -453.848401                    
V 11  14462.663818   -508.513041 -27336.364024     -0.163985                    
P 12  -6330.721511 -22150.189203 -13562.519416   -445.430520                    
V 12  12295.502085  11517.523313 -24990.456575     -0.041092                    
P 13  13471.406759 -22200.656687   4797.791657    593.702537                    
V 13   -147.912674   6915.005085  31315.724719      0.041404                    
P 14  21299.422359  10227.306333 -12279.800860    239.147408                    
V 14   8640.997164  13226.445014  25781.875002      0.108226                    
P 15    736.523212 -26231.890532  -3700.410829     95.703947                    
V 15   4302.157085  -3624.046121  30803.557223      0.037566                    
P 16  -9544.748152  11842.534504  21419.190451   -424.576927                    
V 16 -18060.827669 -21389.411871   4168.452325      0.065696                    
P 17  15083.051294   1202.712595 -21404.431001    723.384540                    
V 17  -9081.790733  26675.495133  -4680.842384     -0.003099                    
P 18 -20393.750657  -6386.821441  15900.422041   -474.917971                    
V 18  19213.032408  -5984.989551  22075.309606     -0.110096                    
P 19  17057.047741  -7521.194383 -18974.794018    396.934584                    
V 19  -7632.784602  22571.268073 -16307.784935      0.052197                    
P 20  13672.746319  -8641.953120  21084.833093    402.371393                    
V 20  21134.652273  16385.542079  -7187.545687     -0.019287                    
P 21  -7929.553437  16378.438980 -18490.271989    144.645977                    
V 21 -24177.331196   6204.663589  16349.394226     -0.009713                    
P 22  19060.689674   4402.810011 -17383.477230     86.583798                    
V 22  12973.057723  19170.496010  18883.069834     -0.070268                    
P 23 -20679.382559 -16315.031309  -4108.383900     96.539061                    
V 23  -2229.754487  -5152.916400  31415.458440      0.062672                    
P 24   2584.957182 -17000.054521 -20542.698082   -367.793646                    
V 24  24396.739888  -7206.727618   9636.621865     -0.090849                    
P 25 -16985.688371 -20393.591766  -3308.131071    476.748468                    
V 25   4652.613364    701.714591 -31020.230716      0.016824                    
P 26 -17042.758553   4492.356156  19834.100891    217.629686                    
V 26 -18217.197693 -17854.575042 -11171.356517     -0.025675                    
P 27 -12753.413772  20856.089899   9587.101702    -67.908057                    
V 27    726.218949 -12959.882475  28809.565491     -0.053514                    
P 28 -25848.736825   5617.632988  -2438.628811    -43.020582                    
V 28   2184.456174  -3513.806636 -31570.454765     -0.082669                    
P 29  -7119.232498 -17366.753554  18707.471567   -610.227228                    
V 29   9529.377724 -21900.001001 -16763.614396      0.000192                    
P 30  25210.274540    582.531414   8876.636891   -469.768606                    
V 30 -10027.814755   5590.900469  28237.281420      0.039941                    
P 31 -24050.810424   9910.242994   6160.353744   -225.597938                    
V 31  -8371.573489   -760.406082 -30056.329515     -0.003694                    
P 32 -15977.150910   3377.039122 -20721.522098   -583.976112                    
V 32   6219.323349 -26067.257072  -9167.672209     -0.045907                    
EOF
